[{"OBJECT_NAME":"SPACEEYE-T1","OBJECT_ID":"2025-052V","EPOCH":"2026-03-09T15:50:33.246528","MEAN_MOTION":15.21501707,"ECCENTRICITY":0.00061242,"INCLINATION":97.4063,"RA_OF_ASC_NODE":322.8058,"ARG_OF_PERICENTER":126.7741,"MEAN_ANOMALY":233.4058,"EPHEMERIS_TYPE":0,"CLASSIFICATION_TYPE":"U","NORAD_CAT_ID":63229,"ELEMENT_SET_NO":999,"REV_AT_EPOCH":5470,"BSTAR":0.00031827215,"MEAN_MOTION_DOT":7.097e-5,"MEAN_MOTION_DDOT":0},{"OBJECT_NAME":"MULE 4T","OBJECT_ID":"2025-313AQ","EPOCH":"2026-03-09T21:24:34.594848","MEAN_MOTION":15.22526761,"ECCENTRICITY":0.00094122,"INCLINATION":97.4001,"RA_OF_ASC_NODE":145.2527,"ARG_OF_PERICENTER":352.2509,"MEAN_ANOMALY":7.858,"EPHEMERIS_TYPE":0,"CLASSIFICATION_TYPE":"U","NORAD_CAT_ID":67286,"ELEMENT_SET_NO":999,"REV_AT_EPOCH":1085,"BSTAR":0.00051041148,"MEAN_MOTION_DOT":0.00011788,"MEAN_MOTION_DDOT":0}]
